C/2019 F2 (ATLAS),e,19.2936,175.4122,11.6422,16.59739,0.0145762,0.86469125,22.3235,11/17.0/2023,2000,g 12.0,4.0
# From MPEC 2021-P47
A/2019 G2,e,159.2180,208.1670,82.6208,416.4923,0.0001160,0.99448754,0.0000,12/07.9675/2019,2000,g 16.5,2.0
# From MPEC 2022-VC5
A/2019 G3,e,156.8040,49.9122,161.8741,17.18520,0.0138348,0.83451429,25.0187,11/17.0/2023,2000,g 17.1,2.0
# From MPC114607
P/2019 GG21 (PANSTARRS),e,6.0866,340.5609,208.5798,7.467810,0.0482963,0.47178516,79.7940,11/17.0/2023,2000,g 12.0,4.0
# From MPEC 2022-M21
C/2019 H1 (NEOWISE),e,104.4139,269.2893,19.3181,243.1244,0.0002600,0.99241706,0.0000,04/27.8687/2019,2000,g 15.5,4.0
# From MPEC 2023-A50
C/2019 J1 (Lemmon),e,24.5343,98.1878,167.7050,67.83935,0.0017639,0.96335819,2.9719,11/17.0/2023,2000,g 12.0,4.0
# From MPEC 2021-R75
C/2019 J2 (Palomar),e,5.2605,25.5365,98.6807,160.9832,0.0004825,0.98930504,0.0000,07/20.3315/2019,2000,g 13.0,4.0
# From MPC117071
C/2019 J3 (ATLAS),h,08/02.4926/2019,131.3288,270.6265,16.5859,1.000516,2.368420,2000,13.5,4.0
# From MPEC 2022-M21
C/2019 JU6 (ATLAS),h,06/02.2854/2019,148.3308,21.7643,94.9618,1.000087,2.041336,2000,14.5,4.0
# From MPEC 2022-O08
C/2019 K1 (ATLAS),e,87.0316,73.3219,265.7346,6568,0.0000019,0.99969316,0.0000,02/12.3867/2020,2000,g 10.0,4.0
# From MPC119997
C/2019 K4 (Ye),e,105.2969,180.1712,139.9290,1450,0.0000178,0.99843380,0.0000,06/15.4170/2019,2000,g 12.5,4.0
# From MPEC 2021-P47
C/2019 K5 (Young),e,15.3146,177.1856,175.1346,169.5355,0.0004465,0.98793356,0.0000,06/22.7860/2019,2000,g 13.0,4.0
# From MPEC 2021-P47
C/2019 K6 (PANSTARRS),e,132.3794,43.0025,187.5479,1333,0.0000203,0.99705685,0.0000,05/19.7571/2020,2000,g 11.5,4.0
# From MPEC 2023-R20
C/2019 K7 (Smith),h,06/17.6652/2020,103.5198,307.9856,27.4099,1.001002,4.478299,2000,6.0,4.0
# From MPEC 2021-R75
C/2019 K8 (ATLAS),e,93.1159,291.0254,85.3617,2293,0.0000090,0.99860675,0.0000,07/21.4891/2019,2000,g 11.5,4.0
# From MPEC 2023-A50
C/2019 L1 (PANSTARRS),e,9.9763,254.4291,50.0620,9.836931,0.0319459,0.70501712,49.8364,11/17.0/2023,2000,g 13.5,4.0
# From MPC115886
C/2019 L2 (NEOWISE),e,152.2056,12.5518,18.8600,25.08330,0.0078456,0.93516782,13.2566,11/17.0/2023,2000,g 16.0,4.0
# From MPEC 2023-HD1
P/2019 LD2 (ATLAS),e,11.6120,179.5204,118.9471,5.207644,0.0829358,0.12674026,112.8805,11/17.0/2023,2000,g 12.0,4.0
# From MPEC 2023-R20
C/2019 L3 (ATLAS),h,01/09.7509/2022,48.3458,290.7608,171.6414,1.002352,3.554648,2000,4.5,4.0
# From MPEC 2020-K19
P/2019 LM4 (Palomar),e,36.4155,72.8376,68.2828,5.705437,0.0723220,0.58513334,116.6554,11/17.0/2023,2000,g  9.5,4.0
# From MPC118095
C/2019 LB7 (Kleyna),e,164.2903,3.9017,336.6301,34.78193,0.0048048,0.92829308,8.1520,11/17.0/2023,2000,g 17.0,4.0
# From MPEC 2022-O08
P/2019 M2 (ATLAS),e,12.2694,307.5901,332.5593,3.029431,0.1869228,0.64729495,300.8996,11/17.0/2023,2000,g 21.2,4.0
# From MPC118095
C/2019 M3 (ATLAS),e,99.5442,154.9540,87.9101,5213,0.0000026,0.99953505,0.0000,12/31.5591/2018,2000,g 12.2,4.0
# From MPEC 2023-JA2
C/2019 M4 (TESS),h,09/12.0175/2019,65.6786,52.6492,260.3737,1.003045,9.189336,2000,5.0,4.0
# From MPEC 2023-C45
C/2019 N1 (ATLAS),e,82.4380,13.5673,193.3932,1298,0.0000211,0.99868687,0.0000,12/01.0627/2020,2000,g  7.5,4.0
# From MPEC 2023-CD8
A/2019 N2,e,89.3639,276.1607,347.1772,1522,0.0000166,0.99872106,0.0000,08/22.6999/2019,2000,g 12.5,2.0
# From MPEC 2022-A21
C/2019 NJ3 (Lemmon),h,10/22.7682/2020,99.4030,142.4789,246.8963,1.001965,4.363570,2000,9.0,4.0
# From MPEC 2023-SQ0
A/2019 O2,e,93.3123,48.2577,129.6208,58.17788,0.0022211,0.83356835,0.4979,11/17.0/2023,2000,g  9.5,2.0
# From MPEC 2023-VM5
C/2019 O3 (Palomar),h,03/09.6644/2021,89.8146,300.4381,60.1339,1.004384,8.821365,2000,3.5,4.0
# From MPEC 2021-P47
A/2019 O4,e,15.0928,354.9277,61.9179,33.30142,0.0051287,0.89038376,7.0530,11/17.0/2023,2000,g 15.5,2.0
# From MPEC 2023-A50
C/2019 Q1 (Lemmon),h,07/21.1030/2020,155.7316,42.4560,56.2255,1.001303,5.004523,2000,8.5,4.0
# From MPC117072
A/2019 Q2,e,159.0223,188.0257,176.4317,58.19682,0.0022200,0.97828427,0.0000,07/22.3208/2019,2000,g 18.0,2.0
# From MPC117072
P/2019 S2 (PANSTARRS),e,10.4654,93.1880,217.1069,4.744288,0.0953779,0.20528866,165.0131,11/17.0/2023,2000,g 13.5,4.0
# From MPEC 2022-CN4
P/2019 S3 (PANSTARRS),e,8.6945,150.1724,213.0521,3.415233,0.1561613,0.47110014,240.8633,11/17.0/2023,2000,g 18.3,4.0
# From MPEC 2021-S45
C/2019 S4 (Lemmon),e,92.0998,63.1576,71.3705,237.4647,0.0002693,0.98550433,0.0000,04/08.2657/2020,2000,g 11.0,4.0
# From MPEC 2023-N01
A/2019 T1,e,120.8697,6.9447,91.0621,38.82651,0.0040739,0.88975882,4.2207,11/17.0/2023,2000,g 13.0,2.0
# From MPEC 2023-R20
C/2019 T2 (Lemmon),e,111.4550,155.6538,239.4300,5040,0.0000028,0.99947501,0.0000,04/22.6301/2021,2000,g  9.0,4.0
# From MPEC 2023-UR6
C/2019 T3 (ATLAS),e,121.8389,139.5324,112.4566,3419,0.0000049,0.99825913,0.0000,03/04.3009/2021,2000,g  6.8,4.0
# From MPEC 2023-VM5
C/2019 T4 (ATLAS),e,53.6312,199.9379,351.1462,913.8683,0.0000357,0.99535920,0.0000,06/08.8048/2022,2000,g  5.0,4.0
# From MPEC 2021-P47
P/2019 T5 (ATLAS),e,33.4885,247.6157,189.5747,7.999434,0.0435627,0.80973455,68.2924,11/17.0/2023,2000,g 15.0,4.0
# From MPEC 2021-P47
P/2019 T6 (PANSTARRS),e,18.6975,71.2532,328.9891,5.438994,0.0777009,0.62308585,114.1510,11/17.0/2023,2000,g 15.5,4.0
# From MPC118096
P/2019 U4 (PANSTARRS),e,11.6991,200.0209,181.0313,3.519882,0.1492492,0.47602679,226.6955,11/17.0/2023,2000,g 19.0,4.0
# From MPEC 2023-VM5
C/2019 U5 (PANSTARRS),h,03/29.7601/2023,113.5171,2.6356,181.4793,1.001187,3.624020,2000,4.5,4.0
# From MPEC 2022-H04
C/2019 U6 (Lemmon),e,60.9677,235.7849,329.5295,326.6623,0.0001669,0.99720769,0.0000,06/18.3162/2020,2000,g 10.0,4.0
# From MPEC 2022-N37
C/2019 V1 (Borisov),e,61.9239,83.1539,51.1682,1674,0.0000144,0.99815176,0.0000,07/16.6277/2020,2000,g 11.0,4.0
# From MPEC 2022-L66
P/2019 V2 (Groeller),e,11.8079,189.1813,335.6823,7.496883,0.0480157,0.33120193,54.0709,11/17.0/2023,2000,g 10.0,4.0
# From MPEC 2023-A50
P/2019 W1 (PANSTARRS),e,23.4758,35.3767,18.7629,4.548857,0.1015899,0.26726589,167.8341,11/17.0/2023,2000,g 12.9,4.0
# From MPEC 2021-P47
P/2019 X1 (Pruyne),e,10.2505,43.6793,36.8201,6.175017,0.0642313,0.30386731,101.3724,11/17.0/2023,2000,g 10.4,4.0
# From MPEC 2020-C98
P/2019 X2 (Pan-STARRS),e,15.8949,250.8388,213.4478,3.636329,0.1421377,0.49994692,204.4235,11/17.0/2023,2000,g 18.0,4.0
# From MPC119999
C/2019 Y1 (ATLAS),e,73.3840,31.5442,57.9147,86.94725,0.0012157,0.99047174,0.0000,03/16.2626/2020,2000,g 13.7,4.0
# From MPEC 2020-C98
P/2019 Y3 (Catalina),e,24.6039,139.3077,2.5845,3.013941,0.1883657,0.69114283,271.0506,11/17.0/2023,2000,g 18.5,4.0
# From MPEC 2022-YN2
C/2019 Y4 (ATLAS),e,45.1465,120.6951,177.4495,350.8516,0.0001500,0.99927074,0.0000,05/30.7163/2020,2000,g 11.8,6.0
# From MPEC 2020-L06
C/2019 Y4-A (ATLAS),h,05/30.7467/2020,45.5876,121.0579,177.2830,1.001417,0.254016,2000,11.6,6.0
# From MPEC 2023-J29
C/2019 Y4-B (ATLAS),h,05/30.7224/2020,45.2768,120.8016,177.3935,1.000015,0.255329,2000,12.1,6.0
# From MPEC 2020-L06
C/2019 Y4-C (ATLAS),h,05/30.6997/2020,45.3702,120.7847,177.3163,1.002142,0.255088,2000,12.7,6.0
# From MPEC 2020-L06
C/2019 Y4-D (ATLAS),e,45.4167,121.1560,177.4548,68.32601,0.0017451,0.99627662,0.0000,05/30.8238/2020,2000,g 12.5,6.0
# From MPEC 2023-A50
C/2019 Y5 (PANSTARRS),e,82.7619,51.7509,303.5860,733.9038,0.0000496,0.99329215,0.0000,08/17.6885/2019,2000,g 11.0,4.0
# From MPEC 2023-A50
A/2020 A1,e,149.0350,119.1701,302.4642,25.58121,0.0076177,0.93485489,11.0157,11/17.0/2023,2000,g 18.0,2.0
# From MPEC 2022-YN2
C/2020 A2 (Iwamoto),e,120.5929,286.2685,68.0592,1284,0.0000214,0.99924153,0.0000,01/08.3948/2020,2000,g 13.5,4.0
# From MPEC 2023-A50
C/2020 A3 (ATLAS),h,06/28.8009/2019,146.6559,120.8050,268.3354,1.000514,5.757568,2000,8.0,4.0
# From MPEC 2022-P91
P/2020 A4 (PANSTARRS-Lemmon),e,24.9912,312.3644,144.7737,8.194985,0.0420128,0.65421317,61.1150,11/17.0/2023,2000,g 15.0,4.0
# From MPEC 2020-N08
A/2020 B1,e,18.5207,309.9338,154.7265,51.52400,0.0026650,0.96624224,3.7878,11/17.0/2023,2000,g 21.0,2.0
# From MPEC 2020-HN5
C/2020 B2 (Lemmon),e,55.7531,354.2871,143.5988,67.66680,0.0017707,0.95921434,2.4619,11/17.0/2023,2000,g 10.0,4.0
# From MPEC 2022-N37
C/2020 B3 (Rankin),e,20.7090,185.8368,324.8867,935.4464,0.0000344,0.99643641,0.0000,10/19.6047/2019,2000,g 13.0,4.0
# From MPEC 2023-KD6
P/2020 B4 (Sheppard),e,11.6084,185.9773,342.0095,7.966977,0.0438292,0.19197607,31.9330,11/17.0/2023,2000,g 10.5,4.0
# From MPEC 2023-VM5
C/2020 F2 (ATLAS),h,07/14.3464/2022,163.5892,250.2983,48.3082,1.005077,8.815860,2000,4.5,4.0
# From MPEC 2021-O56
C/2020 F3 (NEOWISE),e,29.1020,61.0830,37.3054,362.1024,0.0001430,0.99918835,0.0000,07/04.0286/2020,2000,g  7.5,5.2
# From MPEC 2023-VM5
C/2020 F5 (MASTER),e,52.2059,350.5002,310.6815,172.8089,0.0004339,0.97496769,0.0000,03/17.2419/2021,2000,g  6.5,3.2
# From MPEC 2020-L06
C/2020 F6 (PANSTARRS),e,174.5830,207.9022,344.5015,388.1219,0.0001289,0.99097490,0.0000,04/11.5865/2020,2000,g 14.5,2.8
# From MPEC 2023-J95
C/2020 F7 (Lemmon),e,93.9544,321.8597,227.9471,561.6612,0.0000740,0.99050619,0.0000,11/13.6394/2021,2000,g  7.0,4.0
# From MPEC 2023-J29
C/2020 F8 (SWAN),h,05/27.0663/2020,110.5987,259.8517,68.0757,1.000165,0.429739,2000,10.0,4.0
# From MPEC 2020-L06
P/2020 G1 (Pimentel),e,18.5097,240.1072,207.6160,3.607966,0.1438171,0.86056790,192.5812,11/17.0/2023,2000,g 17.0,4.0
# From MPEC 2022-YB4
C/2020 H2 (Pruyne),e,124.8665,277.6689,26.6452,187.3241,0.0003844,0.99556743,0.0000,04/27.7949/2020,2000,g 14.0,3.2
# From MPEC 2020-HM1
C/2020 H3 (Wierzchos),p,06/05.7162/2020,62.5292,30.4456,2.300288,270.6227,2000,13.5,4.0
# From MPEC 2020-L06
C/2020 H4 (Leonard),e,84.4994,307.6250,117.5125,47.82418,0.0029801,0.98066887,0.0000,08/29.6266/2020,2000,g 15.0,3.2
# From MPEC 2023-VM5
C/2020 H5 (Robinson),e,70.2563,210.6276,326.3133,4201,0.0000036,0.99777677,0.0000,12/10.4040/2020,2000,g  5.0,4.0
# From MPEC 2023-SQ0
C/2020 H6 (ATLAS),e,79.9778,213.7209,20.2759,4541,0.0000032,0.99896489,0.0000,09/30.4294/2021,2000,g  8.0,3.2
# From MPEC 2020-KB7
